LEMUR-2-ANDIS           
1 42838U 17042P   26068.55941107  .00023598  00000+0  79875-3 0  9998
2 42838  97.3659 249.7950 0009101   4.3248 355.8070 15.30557934473198
STARLINK-31842          
1 59672U 24084U   26068.30748548 -.00000113  00000+0  54137-5 0  9998
2 59672  43.0059  40.5821 0001090 258.4725 101.6004 15.27578838104354
